
APRIZESAT 7
1 39416U 13066A   26170.30068819  .00000826  00000+0  87147-4 0  9996
2 39416  97.7709 123.4902 0035164 202.1029 157.8676 14.91567872681544

APRIZESAT 8
1 39425U 13066K   26170.29380600  .00000701  00000+0  81917-4 0  9990
2 39425  97.8221 117.7323 0044379 279.3934  80.2266 14.87655918679989

ARIRANG-3 (KOMPSAT-3)
1 38338U 12025B   26170.29091910  .00000335  00000+0  75840-4 0  9990
2 38338  98.1171 127.7146 0006727 104.0746 256.1203 14.62207732751653

ARIRANG-5 (KOMPSAT-5)
1 39227U 13042A   26170.29439965  .00000256  00000+0  22631-4 0  9996
2 39227  97.6202 356.9649 0005422 115.4378 244.7410 15.04493852704177

BEIDOU-2 M4
1 38251U 12018B   26169.19490603 -.00000076  00000+0  00000+0 0  9999
2 38251  55.6572 304.0554 0011296 275.6093  84.2520  1.86229337 95964

BRITE-AUSTRIA
1 39091U 13009F   26170.29768615  .00000120  00000+0  55501-4 0  9997
2 39091  98.3996 349.6811 0009231 229.4697 130.5686 14.36542792697356

CASSIOPE
1 39265U 13055A   26170.26127908  .00046101 -46103-6  50203-3 0  9996
2 39265  80.9136  64.2027 0292110  55.4962 307.3484 15.25366701667982

COSMOS 2484 (RODNIK-S 6)
1 39059U 13001C   26170.23890869  .00000076  00000+0  47872-3 0  9995
2 39059  82.5006 220.6174 0026789  32.2332 328.0379 12.42939511608810

FENGYUN 3C
1 39260U 13052A   26170.23469249  .00000069  00000+0  56186-4 0  9990
2 39260  98.4987 144.0155 0015134  22.0007 338.1814 14.15755510658856

GAOFEN-1
1 39150U 13018A   26170.29932255  .00000661  00000+0  10191-3 0  9991
2 39150  97.9092 242.3247 0015680 258.7271 101.2177 14.76539182708552

GONETS-M 5
1 39249U 13048A   26170.28832747  .00000027  00000+0  12296-3 0  9991
2 39249  82.4831 342.0714 0016187 205.6228 154.4051 12.42891935579144

GONETS-M 7
1 39251U 13048C   26170.25124723 -.00000123  00000+0 -96049-3 0  9996
2 39251  82.4898 345.0179 0016968 207.0750 152.9446 12.42914261579094

METOP-B
1 38771U 12049A   26170.30136410  .00000072  00000+0  52893-4 0  9995
2 38771  98.6504 221.7585 0002107  14.2570 345.8667 14.21433239713562

NEE-01 PEGASO
1 39151U 13018B   26170.14134703  .00002484  00000+0  24048-3 0  9999
2 39151  98.1227 314.3556 0013292 152.8656 207.3260 14.93668156710992

PROBA-V
1 39159U 13021A   26169.38428133  .00000046  00000+0  38301-4 0  9998
2 39159  98.3584 147.9318 0005185 120.6226 239.5465 14.23597149681281

SARAL
1 39086U 13009A   26170.27549405  .00000053  00000+0  35331-4 0  9997
2 39086  98.5557 356.8162 0000641 294.1875  65.9242 14.32856349695907

SJ-9A
1 38860U 12056A   26170.25261120  .00000738  00000+0  91203-4 0  9990
2 38860  97.6709 142.1294 0024039 249.4307 110.4329 14.85481809699894

STRAND-1
1 39090U 13009E   26170.28390494  .00000193  00000+0  79422-4 0  9999
2 39090  98.3923 350.4666 0007835 218.3007 141.7624 14.37164225697362

SUOMI NPP
1 37849U 11061A   26170.31415307  .00000059  00000+0  48984-4 0  9990
2 37849  98.7953 111.1757 0001416   1.7277 358.3904 14.19517791758741

YAOGAN-12
1 37875U 11066B   26170.29771059  .00003260  00000+0  12698-3 0  9999
2 37875  97.1137 208.7668 0009011 208.0523 152.0233 15.26619619812360

ZACUBE-1 (TSHEPISOSAT)
1 39417U 13066B   26170.14032462  .00002311  00000+0  18198-3 0  9994
2 39417  97.8075 132.4874 0041049 240.9478 118.7631 15.01197255681023
