OBJECT_NAME,OBJECT_ID,EPOCH,MEAN_MOTION,ECCENTRICITY,INCLINATION,RA_OF_ASC_NODE,ARG_OF_PERICENTER,MEAN_ANOMALY,EPHEMERIS_TYPE,CLASSIFICATION_TYPE,NORAD_CAT_ID,ELEMENT_SET_NO,REV_AT_EPOCH,BSTAR,MEAN_MOTION_DOT,MEAN_MOTION_DDOT
SUOMI NPP,2011-061A,2026-06-19T07:32:22.825248,14.19517791,.00014164,98.7953,111.1757,1.7277,358.3904,0,U,37849,999,75874,.48983584E-4,.59E-6,0
YAOGAN-12,2011-066B,2026-06-19T07:08:42.194976,15.26619619,.0009011,97.1137,208.7668,208.0523,152.0233,0,U,37875,999,81236,.12697952E-3,.326E-4,0
BEIDOU-2 M4,2012-018B,2026-06-18T04:40:39.880992,1.86229337,.00112968,55.6572,304.0554,275.6093,84.2520,0,U,38251,999,9596,0,-.76E-6,0
ARIRANG-3 (KOMPSAT-3),2012-025B,2026-06-19T06:58:55.410240,14.62207732,.00067279,98.1171,127.7146,104.0746,256.1203,0,U,38338,999,75165,.7584028E-4,.335E-5,0
METOP-B,2012-049A,2026-06-19T07:13:57.858240,14.21433239,.00021075,98.6504,221.7585,14.2570,345.8667,0,U,38771,999,71356,.5289296E-4,.72E-6,0
SJ-9A,2012-056A,2026-06-19T06:03:45.607680,14.85481809,.00240396,97.6709,142.1294,249.4307,110.4329,0,U,38860,999,69989,.91202718E-4,.738E-5,0
COSMOS 2484 (RODNIK-S 6),2013-001C,2026-06-19T05:44:01.710816,12.42939511,.00267893,82.5006,220.6174,32.2332,328.0379,0,U,39059,999,60881,.47871808E-3,.76E-6,0
SARAL,2013-009A,2026-06-19T06:36:42.685920,14.32856349,.00006416,98.5557,356.8162,294.1875,65.9242,0,U,39086,999,69590,.35331419E-4,.53E-6,0
STRAND-1,2013-009E,2026-06-19T06:48:49.386816,14.37164225,.00078356,98.3923,350.4666,218.3007,141.7624,0,U,39090,999,69736,.79421661E-4,.193E-5,0
BRITE-AUSTRIA,2013-009F,2026-06-19T07:08:40.083360,14.36542792,.00092316,98.3996,349.6811,229.4697,130.5686,0,U,39091,999,69735,.5550137E-4,.12E-5,0
GAOFEN-1,2013-018A,2026-06-19T07:11:01.468320,14.76539182,.00156801,97.9092,242.3247,258.7271,101.2177,0,U,39150,999,70855,.10191464E-3,.661E-5,0
NEE-01 PEGASO,2013-018B,2026-06-19T03:23:32.383392,14.93668156,.00132921,98.1227,314.3556,152.8656,207.3260,0,U,39151,999,71099,.24048162E-3,.2484E-4,0
PROBA-V,2013-021A,2026-06-18T09:13:21.906912,14.23597149,.0005185,98.3584,147.9318,120.6226,239.5465,0,U,39159,999,68128,.38301E-4,.46E-6,0
ARIRANG-5 (KOMPSAT-5),2013-042A,2026-06-19T07:03:56.129760,15.04493852,.00054227,97.6202,356.9649,115.4378,244.7410,0,U,39227,999,70417,.22630691E-4,.256E-5,0
GONETS-M 5,2013-048A,2026-06-19T06:55:11.493408,12.42891935,.00161872,82.4831,342.0714,205.6228,154.4051,0,U,39249,999,57914,.12295817E-3,.27E-6,0
GONETS-M 7,2013-048C,2026-06-19T06:01:47.760672,12.42914261,.00169682,82.4898,345.0179,207.0750,152.9446,0,U,39251,999,57909,-.96048741E-3,-.123E-5,0
FENGYUN 3C,2013-052A,2026-06-19T05:37:57.431136,14.15755510,.00151343,98.4987,144.0155,22.0007,338.1814,0,U,39260,999,65885,.56186003E-4,.69E-6,0
CASSIOPE,2013-055A,2026-06-19T06:16:14.512512,15.25366701,.02921109,80.9136,64.2027,55.4962,307.3484,0,U,39265,999,66798,.50202868E-3,.46101E-3,-.46103E-6
APRIZESAT 7,2013-066A,2026-06-19T07:12:59.459616,14.91567872,.00351646,97.7709,123.4902,202.1029,157.8676,0,U,39416,999,68154,.87147166E-4,.826E-5,0
ZACUBE-1 (TSHEPISOSAT),2013-066B,2026-06-19T03:22:04.047168,15.01197255,.00410495,97.8075,132.4874,240.9478,118.7631,0,U,39417,999,68102,.18197503E-3,.2311E-4,0
APRIZESAT 8,2013-066K,2026-06-19T07:03:04.838400,14.87655918,.00443792,97.8221,117.7323,279.3934,80.2266,0,U,39425,999,67998,.81916867E-4,.701E-5,0
